{"type":"FeatureCollection","features":[{"type":"Feature","properties":{"rive":"N"},"geometry":{"type":"MultiPolygon","coordinates":[[[[-73.9316,45.3668],[-73.9752,45.3912],[-73.9813,45.4133],[-73.8580,45.3889],[-73.9316,45.3668]]],[[[-73.5370,45.5581],[-73.5413,45.4826],[-73.5982,45.4430],[-73.7948,45.4672],[-73.9249,45.4299],[-73.9736,45.4446],[-73.8749,45.4931],[-73.8498,45.5207],[-73.7668,45.5272],[-73.694,45.5553],[-73.6095,45.6466],[-73.5166,45.7040],[-73.4706,45.7132],[-73.5040,45.6004],[-73.5370,45.5581]]],[[[-73.6592,45.6917],[-73.5637,45.6923],[-73.6364,45.6493],[-73.7183,45.5624],[-73.7799,45.5471],[-73.8648,45.5543],[-73.8486,45.5841],[-73.7589,45.6525],[-73.6592,45.6917]]],[[[-71.0312,46.8629],[-71.1140,46.8594],[-71.1247,46.8770],[-70.8854,47.0265],[-70.8157,47.0236],[-70.8153,46.9990],[-70.8619,46.9459],[-71.0312,46.8629]]],[[[-70.4253,47.4049],[-70.3907,47.4225],[-70.3238,47.4274],[-70.3931,47.3727],[-70.4356,47.3770],[-70.4253,47.4049]]],[[[-79.5691,50.9855],[-79.3583,50.7804],[-79.3528,50.7433],[-79.3342,50.7269],[-79.3395,50.7918],[-79.4093,50.8703],[-79.4979,50.9340],[-79.5458,50.9944],[-79.6698,51.0584],[-79.7256,51.1217],[-79.7471,51.1955],[-79.6795,51.3131],[-79.6967,51.3985],[-79.6050,51.4478],[-79.5191,51.4673],[-79.5601,51.5555],[-79.4681,51.5801],[-79.3232,51.6669],[-79.2445,51.6309],[-79.2811,51.5720],[-79.2756,51.5316],[-79.1841,51.5257],[-79.1281,51.5425],[-79.0115,51.4673],[-79.0052,51.4190],[-78.9705,51.3774],[-78.9350,51.2816],[-78.9606,51.2579],[-78.9531,51.2192],[-78.9125,51.1824],[-78.8470,51.1644],[-78.9197,51.2329],[-78.9033,51.3043],[-78.8623,51.3441],[-78.8265,51.3500],[-78.8797,51.3744],[-78.8821,51.4032],[-78.7938,51.4744],[-78.6900,51.4872],[-78.7131,51.5065],[-78.8128,51.5145],[-78.8197,51.5679],[-78.7923,51.6107],[-78.8408,51.6170],[-78.8675,51.6468],[-78.9292,51.6604],[-78.9424,51.6751],[-78.9363,51.7001],[-79.0388,51.7685],[-79.0149,51.7961],[-78.9238,51.7982],[-78.8405,51.8422],[-78.8333,51.8571],[-78.8683,51.8903],[-78.8925,51.9467],[-78.7471,51.9768],[-78.7197,52.0139],[-78.6961,52.0182],[-78.7098,52.0564],[-78.6497,52.0586],[-78.6347,52.0694],[-78.6552,52.0837],[-78.5912,52.1061],[-78.5317,52.1997],[-78.5467,52.2466],[-78.4081,52.2482],[-78.4671,52.2755],[-78.5528,52.2681],[-78.5589,52.2888],[-78.4995,52.3558],[-78.5317,52.3953],[-78.5098,52.4213],[-78.5430,52.4400],[-78.5135,52.4579],[-78.5159,52.4767],[-78.5664,52.4878],[-78.5454,52.5151],[-78.5757,52.5393],[-78.6528,52.5317],[-78.6490,52.5492],[-78.6677,52.5559],[-78.7172,52.5424],[-78.7098,52.5629],[-78.7651,52.5703],[-78.6900,52.5977],[-78.7309,52.6175],[-78.7098,52.6249],[-78.7241,52.6522],[-78.7855,52.6591],[-78.7624,52.6960],[-78.8197,52.7006],[-78.7783,52.7138],[-78.7855,52.7410],[-78.8501,52.7573],[-78.8308,52.7825],[-78.7350,52.7891],[-78.7309,52.8304],[-78.7803,52.8196],[-78.6900,52.8850],[-78.7960,52.8709],[-78.8552,52.8838],[-78.9016,52.9266],[-78.8745,52.9398],[-78.8675,52.9675],[-78.8060,52.9601],[-78.7855,52.9818],[-78.8258,52.9838],[-78.8570,53.0171],[-78.8930,53.0016],[-78.9842,53.0284],[-78.9159,53.0638],[-78.9773,53.0700],[-78.9159,53.1662],[-78.9373,53.1867],[-78.9016,53.2009],[-78.9289,53.2208],[-78.8880,53.2317],[-78.8992,53.2482],[-78.9227,53.2481],[-78.8954,53.2686],[-78.9520,53.2914],[-78.9373,53.3170],[-78.9643,53.3444],[-78.9449,53.3922],[-78.9916,53.4535],[-79.0632,53.4419],[-79.0524,53.4610],[-79.1145,53.5088],[-79.0700,53.5306],[-79.0300,53.5351],[-79.0462,53.5163],[-79.0041,53.4976],[-78.9568,53.5163],[-79.0325,53.5566],[-79.0195,53.5708],[-78.9606,53.5497],[-78.9230,53.5667],[-78.9817,53.6154],[-79.0661,53.5982],[-79.0388,53.6392],[-79.0231,53.6320],[-79.0075,53.6476],[-79.0462,53.6727],[-79.0133,53.6773],[-79.0192,53.6939],[-79.1561,53.7080],[-79.0488,53.7256],[-79.0388,53.7416],[-79.0626,53.7440],[-79.0633,53.7571],[-79.0462,53.7900],[-79.0735,53.8036],[-79.0189,53.8241],[-79.0524,53.8378],[-79.0134,53.8458],[-78.9016,53.8173],[-78.9286,53.8434],[-78.9714,53.8550],[-79.0661,53.8576],[-79.0665,53.8942],[-79.1077,53.9061],[-78.9916,53.9129],[-79.0222,53.9359],[-79.1350,53.9613],[-79.0423,53.9472],[-79.0252,53.9613],[-79.0764,53.9675],[-79.0388,53.9675],[-79.0480,53.9796],[-79.1009,53.9817],[-79.0593,53.9892],[-79.0735,54.0023],[-79.0489,54.0101],[-78.9643,54.0023],[-78.9795,54.0192],[-79.1371,54.0829],[-79.2926,54.0910],[-79.1691,54.0910],[-79.1750,54.1115],[-79.1077,54.1121],[-79.1286,54.1285],[-79.1077,54.1251],[-79.1009,54.1394],[-79.1424,54.1456],[-79.0462,54.1804],[-79.1013,54.1876],[-79.2382,54.1616],[-79.2380,54.1804],[-79.2858,54.1736],[-79.3205,54.1967],[-79.3820,54.1940],[-79.3268,54.2282],[-79.3342,54.2487],[-79.3054,54.2415],[-79.2858,54.2555],[-79.4081,54.2708],[-79.4435,54.2835],[-79.4155,54.2971],[-79.4241,54.3069],[-79.4639,54.3101],[-79.4633,54.3533],[-79.5049,54.3722],[-79.4913,54.3858],[-79.4981,54.4063],[-79.4503,54.4200],[-79.5049,54.4268],[-79.4906,54.4625],[-79.5191,54.5019],[-79.5533,54.5093],[-79.5291,54.5170],[-79.5398,54.5350],[-79.6011,54.5571],[-79.5294,54.5772],[-79.5254,54.5913],[-79.5821,54.6063],[-79.6011,54.5981],[-79.5806,54.5913],[-79.6353,54.5777],[-79.5937,54.6329],[-79.6905,54.6329],[-79.6483,54.6497],[-79.6706,54.6738],[-79.6994,54.6529],[-79.7656,54.6596],[-79.6435,54.7007],[-79.6429,54.7382],[-79.6284,54.7421],[-79.6419,54.7284],[-79.6169,54.7146],[-79.2926,54.7974],[-78.9674,54.8519],[-78.8748,54.9076],[-78.6037,54.9680],[-78.5296,55.0038],[-78.3922,55.0275],[-78.1555,55.1400],[-77.7816,55.2735],[-77.6749,55.3669],[-77.2375,55.5917],[-77.1380,55.6577],[-77.0886,55.7142],[-77.1891,55.6818],[-76.8419,55.9336],[-76.8087,55.9860],[-76.6815,56.0429],[-76.6220,56.1394],[-76.5888,56.2378],[-76.5451,56.2950],[-76.5184,56.4136],[-76.5274,56.5944],[-76.5037,56.7837],[-76.5579,57.0312],[-76.5327,57.1153],[-76.5646,57.1535],[-76.5893,57.2713],[-76.6566,57.4043],[-76.6862,57.4271],[-76.7093,57.4626],[-76.6957,57.4694],[-76.7149,57.4733],[-76.8055,57.6134],[-76.8087,57.6755],[-77.1482,58.0175],[-77.2642,58.0864],[-77.3399,58.1000],[-77.3946,58.1478],[-77.4908,58.1684],[-77.4450,58.1846],[-77.4706,58.2119],[-77.6231,58.2784],[-77.6962,58.2851],[-77.7707,58.3191],[-78.0314,58.3881],[-78.0144,58.4240],[-78.0787,58.4558],[-78.1276,58.4547],[-78.2027,58.5048],[-78.2673,58.5191],[-78.3126,58.5730],[-78.4093,58.6297],[-78.4299,58.6208],[-78.4173,58.6006],[-78.3200,58.5463],[-78.3723,58.5419],[-78.4464,58.5796],[-78.4676,58.6120],[-78.5488,58.6088],[-78.5709,58.6386],[-78.5594,58.6649],[-78.5733,58.6754],[-78.4685,58.706],[-78.4835,58.7313],[-78.5424,58.7652],[-78.5383,58.7954],[-78.5081,58.7791],[-78.4885,58.8064],[-78.5454,58.9020],[-78.5317,58.9429],[-78.5657,58.9577],[-78.5180,58.9634],[-78.4429,58.9157],[-78.4514,58.9397],[-78.4345,58.9544],[-78.3568,58.9594],[-78.3618,58.9141],[-78.3163,58.9255],[-78.3046,58.9599],[-78.2437,58.9982],[-78.3200,58.9914],[-78.2793,59.0171],[-78.2716,59.0323],[-78.2852,59.0528],[-78.2542,59.0699],[-78.2100,59.0534],[-78.2232,59.1081],[-78.2017,59.1126],[-78.1786,59.0922],[-78.1314,59.1078],[-78.1261,59.1232],[-78.1555,59.1552],[-78.0866,59.1614],[-78.1065,59.2099],[-77.9498,59.2678],[-77.8192,59.2930],[-77.8948,59.3129],[-77.7850,59.3265],[-77.7701,59.3506],[-77.8061,59.3681],[-77.6751,59.4022],[-77.7235,59.4159],[-77.7392,59.4012],[-77.7707,59.4085],[-77.7929,59.4325],[-77.8906,59.4014],[-77.9153,59.4190],[-77.8897,59.4453],[-77.8470,59.4500],[-77.8811,59.4849],[-77.7303,59.5486],[-77.7161,59.6214],[-77.7849,59.6593],[-77.7986,59.6828],[-77.7440,59.6971],[-77.7781,59.7101],[-77.7062,59.7033],[-77.6685,59.6767],[-77.5703,59.6934],[-77.4875,59.6477],[-77.4621,59.6245],[-77.4697,59.5946],[-77.4429,59.5775],[-77.3127,59.5667],[-77.4258,59.5954],[-77.4498,59.6145],[-77.4445,59.6448],[-77.4628,59.6766],[-77.5454,59.6896],[-77.4908,59.7175],[-77.5454,59.7449],[-77.5353,59.7593],[-77.4684,59.7477],[-77.4324,59.7896],[-77.2916,59.7995],[-77.3717,59.9003],[-77.4250,59.9192],[-77.3530,59.9298],[-77.3871,59.9435],[-77.2989,59.9708],[-77.3331,59.9844],[-77.2363,59.9975],[-77.3127,60.0254],[-77.2447,60.0336],[-77.1891,60.0602],[-77.3308,60.0357],[-77.3697,60.0669],[-77.4185,60.0465],[-77.6341,60.0664],[-77.5795,60.0943],[-77.6006,60.1148],[-77.5571,60.1305],[-77.4082,60.1353],[-77.5353,60.1837],[-77.5596,60.2110],[-77.4697,60.2172],[-77.5641,60.2674],[-77.5379,60.2862],[-77.6136,60.2656],[-77.6218,60.2724],[-77.5932,60.3209],[-77.6332,60.3436],[-77.6341,60.3612],[-77.7161,60.3823],[-77.7431,60.4042],[-77.7233,60.4462],[-77.5917,60.5026],[-77.5469,60.5474],[-77.4151,60.5468],[-77.5418,60.5756],[-77.6860,60.5582],[-77.7705,60.5924],[-77.8292,60.6432],[-77.6068,60.7591],[-77.6295,60.7749],[-77.7440,60.7665],[-77.5106,60.8410],[-77.8948,60.7523],[-77.8600,60.7926],[-77.9699,60.7926],[-77.8806,60.8273],[-77.9194,60.8352],[-78.1965,60.7926],[-78.1655,60.8683],[-77.8710,61.0502],[-77.8093,61.0570],[-77.7887,61.1557],[-77.6927,61.2073],[-77.7515,61.2320],[-77.7235,61.2730],[-77.7440,61.2972],[-77.7484,61.3748],[-77.7852,61.4546],[-77.7490,61.4589],[-77.6975,61.4318],[-77.6771,61.4392],[-77.6826,61.4648],[-77.6077,61.4646],[-77.5454,61.4853],[-77.6661,61.5276],[-77.6412,61.5602],[-77.4765,61.5399],[-77.5455,61.5759],[-77.6341,61.5821],[-77.5727,61.6013],[-77.7083,61.6162],[-77.7927,61.7013],[-77.9398,61.6935],[-77.9897,61.7148],[-78.0091,61.7782],[-78.0848,61.8880],[-78.0730,61.9241],[-78.0939,61.9768],[-78.1369,62.0134],[-78.1427,62.1072],[-78.1650,62.1669],[-78.1412,62.2320],[-78.1548,62.2973],[-78.1181,62.3097],[-78.1004,62.3471],[-78.0240,62.3917],[-77.9356,62.4070],[-77.7846,62.4679],[-77.6870,62.4772],[-77.6566,62.5165],[-77.5379,62.5473],[-77.4717,62.5938],[-77.4048,62.5883],[-77.3775,62.5575],[-77.1683,62.5473],[-77.1371,62.5268],[-77.0784,62.5352],[-77.0432,62.5192],[-76.9698,62.5434],[-76.9120,62.5221],[-76.7577,62.5108],[-76.6646,62.4868],[-76.6268,62.4616],[-76.5340,62.4591],[-76.4644,62.4353],[-76.1498,62.3870],[-76.0985,62.3456],[-75.9490,62.3555],[-75.8297,62.3133],[-75.6585,62.2964],[-75.5921,62.2730],[-75.8937,62.1637],[-75.8316,62.1637],[-75.5750,62.2456],[-75.4934,62.2958],[-75.3277,62.3174],[-75.1505,62.2849],[-75.1533,62.2320],[-75.0924,62.2667],[-75.0060,62.2689],[-74.8903,62.2342],[-74.7585,62.1520],[-74.5580,62.1091],[-74.7410,62.1851],[-74.7550,62.2135],[-74.7049,62.2525],[-74.4168,62.2525],[-74.3178,62.2866],[-74.2783,62.3234],[-74.2167,62.3370],[-74.1546,62.3251],[-73.9979,62.3673],[-73.8721,62.4647],[-73.6707,62.4821],[-73.5714,62.3948],[-73.5023,62.3903],[-73.4501,62.3661],[-73.3781,62.3704],[-73.3172,62.3282],[-73.2095,62.3128],[-73.2120,62.2763],[-73.1960,62.2605],[-73.0838,62.2149],[-73.0621,62.1875],[-72.9689,62.1729],[-72.8989,62.1432],[-72.9473,62.1227],[-72.7828,62.1091],[-72.8238,62.1358],[-72.7344,62.1500],[-72.6291,62.1168],[-72.6214,62.1018],[-72.6661,62.0613],[-72.5979,62.0476],[-72.6158,62.0365],[-72.5979,62.0197],[-72.6077,61.9721],[-72.6851,61.9512],[-72.6913,61.9023],[-72.7959,61.8353],[-72.7549,61.8353],[-72.6661,61.8831],[-72.6632,61.8500],[-72.6018,61.8125],[-72.6317,61.8956],[-72.6304,61.9229],[-72.6052,61.9436],[-72.3570,61.8893],[-72.2323,61.8812],[-72.1318,61.8006],[-72.2062,61.7931],[-72.1870,61.7801],[-72.2115,61.7788],[-72.2237,61.7501],[-72.1946,61.7374],[-72.1411,61.7573],[-72.0762,61.7448],[-71.9952,61.6771],[-72.0851,61.6062],[-72.2434,61.6176],[-72.2773,61.6030],[-72.3030,61.5678],[-72.2208,61.6013],[-72.0834,61.5889],[-71.9794,61.6038],[-71.9354,61.6709],[-71.9727,61.7081],[-71.9567,61.7112],[-71.6744,61.6563],[-71.5809,61.6138],[-71.5694,61.6013],[-71.5905,61.6013],[-71.5582,61.5873],[-71.5557,61.5610],[-71.6073,61.5678],[-71.6377,61.5468],[-71.6915,61.5392],[-71.8574,61.5337],[-71.7925,61.5269],[-71.7818,61.5043],[-71.7960,61.4915],[-71.7481,61.4791],[-71.7687,61.4609],[-71.8915,61.4307],[-71.7345,61.4102],[-71.5831,61.4102],[-71.7072,61.3683],[-71.8226,61.3754],[-71.7960,61.3692],[-71.8226,61.3549],[-71.6656,61.3344],[-71.7271,61.2872],[-71.5967,61.2593],[-71.6309,61.2041],[-71.5729,61.2205],[-71.5557,61.1973],[-71.5728,61.1557],[-71.5079,61.1699],[-71.5353,61.2107],[-71.4976,61.2309],[-71.4758,61.2263],[-71.3715,61.1290],[-71.3599,61.1264],[-71.3714,61.1495],[-71.2132,61.1672],[-71.2206,61.1495],[-71.1850,61.1227],[-71.1676,61.1410],[-71.1114,61.1252],[-71.0388,61.1317],[-70.9353,61.1066],[-70.9394,61.0737],[-70.8469,61.0754],[-70.7899,61.0547],[-70.7620,61.0567],[-70.7818,61.0737],[-70.7617,61.0858],[-70.6582,61.0539],[-70.6856,61.0328],[-70.6677,61.0268],[-70.6036,61.0328],[-70.5353,61.0123],[-70.5689,61.0464],[-70.5353,61.0464],[-70.5416,61.0601],[-70.5266,61.0654],[-70.4255,61.0265],[-70.4431,61.0582],[-70.4044,61.0601],[-70.4255,61.0880],[-70.3429,61.0675],[-70.3473,61.0830],[-70.3251,61.1004],[-70.2467,61.0737],[-70.1553,61.0876],[-70.1102,61.0601],[-70.1600,61.0216],[-70.1269,61.0102],[-70.1033,61.0198],[-70.1117,60.9960],[-70.0897,60.9611],[-70.1048,60.9260],[-70.0897,60.9025],[-70.1511,60.8820],[-70.0550,60.8758],[-70.0587,60.8503],[-69.9866,60.8478],[-69.9158,60.8100],[-69.8495,60.8546],[-69.9387,60.8401],[-69.7769,60.9195],[-69.7403,60.9229],[-69.7393,60.8860],[-69.7026,60.8743],[-69.6623,60.8852],[-69.6509,60.9168],[-69.6917,60.9588],[-69.6510,61.0642],[-69.5854,61.0880],[-69.5366,61.0796],[-69.4334,60.9639],[-69.4243,60.9229],[-69.3697,60.9168],[-69.3902,60.8683],[-69.3697,60.8239],[-69.3813,60.7998],[-69.5723,60.7515],[-69.7197,60.6840],[-69.6832,60.6430],[-69.6976,60.6081],[-69.6671,60.5994],[-69.6667,60.5672],[-69.8290,60.5257],[-69.7497,60.4622],[-69.7758,60.4245],[-69.7353,60.4113],[-69.7197,60.3755],[-69.7654,60.3170],[-69.7123,60.2997],[-69.6569,60.2415],[-69.6024,60.2246],[-69.6509,60.1837],[-69.5955,60.1789],[-69.6280,60.0767],[-69.7061,60.0633],[-69.7228,60.0465],[-69.8262,60.0716],[-69.8426,60.0288],[-69.7730,60.0043],[-69.8216,59.9892],[-70.3361,60.0322],[-70.3094,60.0117],[-70.5719,59.9949],[-70.6507,60.0217],[-70.9962,60.0762],[-71.0350,60.0664],[-70.9212,60.0555],[-70.8627,60.0294],[-70.5777,59.9772],[-70.2266,59.9865],[-70.1648,59.9640],[-70.0450,59.9509],[-69.7350,59.9702],[-69.7197,59.9602],[-69.7277,59.9219],[-69.7675,59.9155],[-69.5615,59.8646],[-69.6006,59.8336],[-69.6121,59.7838],[-69.5478,59.7647],[-69.6577,59.7033],[-69.5205,59.6766],[-69.5162,59.6492],[-69.5679,59.6026],[-69.6599,59.5778],[-69.7485,59.5160],[-69.7582,59.4904],[-69.6987,59.4848],[-69.7047,59.4721],[-69.6489,59.4282],[-69.6434,59.4159],[-69.6714,59.3886],[-69.6320,59.3851],[-69.6434,59.3647],[-69.7495,59.3427],[-69.7551,59.3176],[-69.7246,59.3050],[-69.6270,59.3067],[-69.5764,59.3317],[-69.4225,59.3615],[-69.3560,59.3340],[-69.3694,59.3203],[-69.3587,59.3140],[-69.2976,59.3342],[-69.2547,59.3248],[-69.2468,59.3029],[-69.2659,59.2768],[-69.2325,59.2412],[-69.2948,59.2160],[-69.3652,59.2444],[-69.3663,59.2034],[-69.3890,59.1942],[-69.4495,59.2285],[-69.5425,59.1695],[-69.5416,59.1279],[-69.5156,59.1084],[-69.4656,59.1372],[-69.4339,59.1105],[-69.3792,59.1197],[-69.3424,59.0938],[-69.4143,59.0548],[-69.4302,59.0254],[-69.5035,59.0733],[-69.4516,58.8952],[-69.4787,58.8729],[-69.5229,58.8898],[-69.5379,58.8358],[-69.5652,58.8064],[-69.6651,58.7921],[-69.7197,58.8672],[-69.6784,58.8950],[-69.6718,58.9274],[-69.7086,58.9222],[-69.7197,58.9361],[-69.7047,58.9630],[-69.7293,58.9829],[-69.7612,58.9881],[-69.7675,58.9708],[-69.7963,58.9813],[-69.8631,59.0596],[-69.8772,59.0518],[-69.8660,58.9873],[-69.8979,58.9634],[-69.8226,58.9459],[-69.8034,58.9190],[-69.8160,58.8815],[-69.8017,58.8262],[-69.9116,58.8740],[-69.8904,58.8331],[-70.0344,58.8126],[-70.0723,58.7921],[-70.2119,58.7895],[-70.2542,58.7716],[-70.1714,58.7757],[-70.1363,58.7564],[-70.0587,58.7573],[-70.0413,58.7375],[-69.9212,58.7791],[-69.9322,58.7274],[-69.9182,58.6863],[-69.8614,58.7150],[-69.7974,58.7007],[-69.8768,58.6447],[-69.8135,58.5965],[-69.7957,58.5984],[-69.6987,58.7027],[-69.6505,58.7011],[-69.6363,58.7390],[-69.6082,58.7603],[-69.4870,58.7921],[-69.3781,58.8694],[-69.2563,58.8991],[-69.1248,58.9019],[-68.9793,58.9020],[-68.9929,58.8815],[-68.8947,58.8778],[-68.7734,58.9216],[-68.6160,58.8912],[-68.4998,58.8331],[-68.4102,58.8239],[-68.3561,58.7716],[-68.3828,58.7341],[-68.3809,58.7009],[-68.3288,58.6754],[-68.3487,58.6003],[-68.2742,58.5867],[-68.2914,58.5344],[-68.2742,58.5246],[-68.1910,58.5463],[-68.2205,58.4843],[-68.2058,58.4340],[-68.3151,58.2509],[-68.3502,58.1705],[-68.3418,58.1444],[-68.3540,58.1237],[-68.5200,58.0311],[-68.7191,58.0137],[-68.9701,57.9603],[-69.0475,57.9151],[-69.1411,57.8986],[-69.2237,57.8620],[-69.3697,57.7704],[-69.1093,57.8933],[-68.9496,57.9410],[-68.4175,58.0386],[-68.3902,58.0721],[-68.3384,58.0898],[-68.3098,58.1209],[-68.2925,58.2217],[-68.2515,58.2365],[-68.2324,58.3076],[-68.1873,58.3638],[-68.1913,58.3905],[-68.1705,58.4221],[-68.1739,58.4910],[-68.1234,58.5320],[-68.0273,58.5217],[-68.0272,58.5519],[-68.0062,58.5795],[-67.9535,58.5443],[-67.9651,58.5184],[-67.8897,58.4987],[-67.9173,58.4529],[-67.9236,58.4049],[-67.9099,58.3676],[-67.8616,58.3264],[-67.8627,58.3092],[-67.9002,58.2558],[-68.0824,58.1553],[-68.1295,58.0829],[-68.1205,58.0718],[-67.9992,58.1410],[-67.9532,58.2119],[-67.8627,58.2372],[-67.8646,58.2590],[-67.8006,58.2986],[-67.8235,58.3356],[-67.8207,58.3992],[-67.7869,58.4426],[-67.7869,58.4700],[-67.7385,58.4691],[-67.6754,58.4234],[-67.7082,58.3834],[-67.6913,58.3601],[-67.7295,58.3333],[-67.7180,58.2986],[-67.7323,58.2851],[-67.6755,58.2794],[-67.6480,58.2361],[-67.7017,58.1414],[-67.6702,58.0721],[-67.7401,57.9637],[-67.7385,57.9430],[-67.7134,57.9270],[-67.7013,57.9378],[-67.7066,57.9907],[-67.6418,58.0491],[-67.6624,58.1159],[-67.5678,58.2304],[-67.5368,58.2338],[-67.4648,58.2851],[-67.3635,58.2861],[-67.3321,58.3239],[-67.2180,58.3436],[-67.1602,58.3802],[-67.0869,58.3627],[-67.0641,58.3929],[-67.0806,58.4221],[-67.0061,58.4365],[-66.9466,58.4983],[-66.8836,58.4865],[-66.8963,58.4495],[-66.8522,58.4250],[-66.8019,58.4777],[-66.8068,58.4979],[-66.6151,58.4979],[-66.6692,58.5399],[-66.6240,58.5513],[-66.6287,58.5928],[-66.5885,58.6312],[-66.5953,58.6771],[-66.5714,58.6694],[-66.5536,58.7101],[-66.4686,58.7219],[-66.4512,58.7443],[-66.4909,58.7648],[-66.4633,58.7866],[-66.4717,58.8126],[-66.3823,58.8535],[-66.2525,58.7951],[-66.1939,58.7490],[-66.1158,58.7263],[-66.0788,58.6585],[-66.0074,58.6568],[-66.0049,58.6345],[-65.9441,58.6208],[-65.9402,58.5963],[-66.0182,58.4982],[-65.9928,58.4308],[-65.9987,58.4085],[-66.0949,58.3601],[-66.0533,58.3328],[-66.0351,58.3762],[-65.9692,58.3970],[-65.9575,58.4329],[-65.9230,58.4426],[-65.9254,58.4595],[-65.9850,58.4774],[-65.9795,58.4900],[-65.9051,58.5379],[-65.8889,58.5799],[-65.8275,58.5799],[-65.8642,58.5978],[-65.8752,58.6282],[-65.9378,58.6489],[-65.9616,58.6880],[-66.0397,58.6966],[-66.0431,58.7573],[-66.1086,58.7791],[-66.0191,58.8611],[-65.9708,58.8262],[-65.9449,58.8414],[-65.8595,58.8328],[-65.7956,58.8634],[-65.9366,58.8815],[-65.9830,58.9048],[-65.9822,58.9171],[-65.8616,58.9429],[-65.8539,58.9611],[-65.8854,59.0081],[-65.7562,58.9757],[-65.6773,58.9285],[-65.6688,58.9493],[-65.6887,58.9738],[-65.7933,59.0050],[-65.7381,59.0181],[-65.7790,59.0323],[-65.6834,59.0528],[-65.5070,58.9881],[-65.4916,58.9914],[-65.5019,59.0050],[-65.5941,59.0460],[-65.5292,59.0665],[-65.4436,59.0451],[-65.3197,59.0460],[-65.3497,59.0645],[-65.4256,59.0635],[-65.5416,59.1088],[-65.5816,59.0750],[-65.6424,59.0733],[-65.7176,59.1583],[-65.7099,59.1856],[-65.6834,59.1968],[-65.7449,59.2304],[-65.7393,59.2706],[-65.6802,59.2639],[-65.5941,59.1893],[-65.6121,59.2493],[-65.6029,59.2571],[-65.5804,59.2446],[-65.5433,59.2646],[-65.4916,59.2582],[-65.5660,59.3074],[-65.5804,59.3647],[-65.5589,59.3766],[-65.3575,59.2821],[-65.4471,59.3667],[-65.4329,59.4029],[-65.3818,59.4022],[-65.4979,59.4363],[-65.4705,59.4500],[-65.5599,59.4910],[-65.4575,59.4723],[-65.3641,59.4848],[-65.1855,59.4631],[-65.1729,59.4389],[-65.0528,59.3811],[-64.9839,59.3811],[-65.0823,59.4106],[-65.1812,59.4757],[-65.4118,59.5178],[-65.5462,59.7312],[-65.4663,59.7714],[-65.4979,59.7926],[-65.4459,59.7869],[-65.4177,59.8152],[-65.3675,59.7995],[-65.3789,59.8297],[-65.3234,59.8479],[-65.0840,59.7717],[-64.9839,59.7647],[-65.2241,59.8411],[-65.2030,59.8541],[-65.2297,59.8924],[-65.1404,59.8713],[-65.1285,59.8854],[-65.1378,59.9002],[-65.2098,59.9230],[-65.1411,59.9316],[-65.1351,59.9566],[-65.0801,59.9298],[-65.0709,59.9433],[-65.1285,59.9776],[-65.0665,59.9776],[-65.1176,60.0083],[-65.1285,60.0465],[-65.0460,60.0547],[-65.0249,60.0807],[-65.0631,60.1043],[-65.0010,60.1162],[-64.9947,60.1526],[-64.9661,60.1547],[-64.9515,60.1934],[-64.8740,60.2042],[-64.9572,60.2588],[-64.8843,60.2819],[-64.8469,60.3134],[-64.8397,60.3432],[-64.8604,60.3612],[-64.7784,60.3612],[-64.6760,60.3339],[-64.6966,60.3550],[-64.6275,60.3467],[-64.5457,60.3066],[-64.4642,60.2910],[-64.3806,60.2451],[-64.4257,60.2426],[-64.4951,60.2725],[-64.6365,60.2930],[-64.7586,60.2383],[-64.7293,60.2348],[-64.6170,60.2725],[-64.5573,60.2698],[-64.4632,60.2383],[-64.5662,60.1763],[-64.5041,60.1785],[-64.4161,60.2233],[-64.3949,60.2172],[-64.4290,60.1967],[-64.3806,60.1701],[-64.3992,60.1511],[-64.4979,60.1148],[-64.4632,60.0875],[-64.6324,60.0715],[-64.8282,59.9911],[-64.8064,59.9844],[-64.5867,60.0602],[-64.4515,60.0661],[-64.3771,60.1297],[-64.3754,60.0811],[-64.4024,60.0875],[-64.4137,60.0711],[-64.3737,60.0401],[-64.3932,60.0144],[-64.5395,60.0109],[-64.4166,59.9850],[-64.4005,59.9760],[-64.4019,59.9414],[-64.5184,59.9025],[-64.3689,59.9274],[-64.3635,59.9579],[-64.3055,59.9975],[-64.2242,59.9975],[-64.3026,60.0099],[-64.3289,60.0281],[-64.3260,60.0602],[-64.1826,60.0322],[-64.1478,59.9844],[-64.2744,59.9637],[-64.2987,59.9435],[-64.2293,59.9416],[-64.1826,59.9155],[-64.2577,59.8746],[-64.1990,59.8765],[-64.1531,59.9120],[-64.1263,59.9074],[-64.1702,59.8456],[-64.1758,59.7961],[-64.1925,59.7785],[-64.2593,59.7883],[-64.2645,59.7647],[-64.1478,59.6828],[-63.9623,59.6945],[-63.9430,59.6896],[-63.9697,59.6623],[-63.9219,59.6555],[-64.0316,59.6449],[-64.1205,59.5183],[-64.0399,59.5622],[-64.0321,59.6101],[-64.0073,59.6240],[-63.8640,59.6113],[-63.8775,59.5838],[-63.9430,59.5667],[-63.9833,59.5258],[-63.9807,59.5064],[-63.8741,59.5729],[-63.7669,59.5482],[-63.7276,59.5199],[-63.7950,59.4221],[-63.9998,59.4185],[-64.0606,59.3872],[-63.8058,59.3749],[-63.7506,59.3886],[-63.7648,59.3681],[-63.7096,59.3681],[-63.7748,59.2634],[-63.8257,59.2446],[-63.7301,59.2650],[-63.6983,59.3253],[-63.6516,59.3681],[-63.5315,59.3477],[-63.5240,59.3231],[-63.5451,59.2582],[-63.6414,59.2241],[-63.6289,59.2169],[-63.5439,59.2197],[-63.4663,59.2787],[-63.4178,59.2909],[-63.3807,59.2787],[-63.4490,59.2446],[-63.4370,59.2295],[-63.4632,59.1931],[-63.3857,59.2195],[-63.3608,59.1982],[-63.4422,59.1205],[-63.5214,59.1082],[-63.5817,59.0750],[-63.7471,59.0528],[-63.9735,59.0789],[-64.0399,59.0179],[-63.9693,59.0366],[-63.9464,59.0596],[-63.8946,59.0596],[-63.9166,59.0268],[-63.8823,58.9619],[-63.8604,58.9634],[-63.8809,59.0181],[-63.8707,59.0331],[-63.8121,59.0460],[-63.7438,59.0181],[-63.6618,59.0385],[-63.5357,59.0363],[-63.4606,59.0708],[-63.4208,59.0650],[-63.3866,59.1019],[-63.3527,59.1044],[-63.2851,59.0938],[-63.2913,59.0733],[-63.1315,59.0623],[-63.1274,59.0460],[-63.1619,59.0300],[-63.3397,59.0323],[-63.2224,59.0050],[-63.3055,58.9429],[-63.2410,58.9756],[-63.1831,58.9843],[-63.1678,58.9634],[-63.2298,58.9429],[-63.1616,58.9224],[-63.2366,58.8815],[-63.3260,58.8610],[-63.1950,58.8591],[-63.1678,58.8815],[-63.1547,58.8740],[-63.1788,58.8284],[-63.1547,58.8262],[-63.0918,58.8949],[-63.0145,58.8974],[-62.9896,58.8815],[-63.0523,58.8610],[-62.9269,58.8231],[-62.9100,58.7969],[-62.9146,58.7511],[-63.0449,58.7101],[-62.9456,58.7027],[-62.8728,58.7156],[-62.8445,58.6851],[-62.8566,58.6556],[-62.9176,58.6314],[-62.9353,58.5966],[-63.0783,58.5591],[-63.1547,58.5246],[-63.1678,58.5048],[-63.3055,58.5109],[-63.3686,58.4977],[-63.4422,58.5246],[-63.4714,58.4903],[-63.5240,58.4774],[-63.3749,58.4905],[-63.3419,58.4788],[-63.3397,58.4632],[-63.4207,58.3996],[-63.5347,58.3527],[-63.5930,58.3055],[-63.4217,58.3676],[-63.2640,58.4700],[-63.1441,58.4783],[-63.0858,58.4563],[-63.1571,58.3950],[-63.1616,58.3676],[-63.0633,58.4516],[-63.0096,58.4286],[-62.9377,58.4682],[-62.8235,58.4711],[-62.7978,58.4979],[-62.7842,58.4979],[-62.7859,58.4589],[-62.7437,58.4962],[-62.5786,58.5042],[-62.5582,58.4774],[-62.6539,58.4147],[-62.6193,58.3708],[-62.6334,58.3601],[-62.6234,58.3092],[-62.7211,58.2731],[-62.8555,58.2686],[-62.9075,58.2143],[-62.8880,58.2028],[-62.8630,58.2372],[-62.8216,58.2571],[-62.6971,58.2532],[-62.6675,58.2714],[-62.6004,58.2545],[-62.5833,58.2352],[-62.5787,58.2230],[-62.6146,58.2138],[-62.6352,58.1867],[-63.0790,58.1553],[-63.0108,58.1410],[-63.0345,58.1182],[-63.2093,58.0622],[-63.1343,58.0659],[-63.1681,58.0280],[-63.3397,57.9839],[-63.1195,58.0048],[-63.0994,58.0213],[-63.0924,58.0580],[-62.9714,58.0963],[-62.9644,58.1150],[-62.9261,58.1328],[-62.8326,58.1478],[-62.8531,58.1348],[-62.8408,58.1234],[-62.7495,58.1253],[-62.7141,58.1445],[-62.6512,58.1238],[-62.5811,58.1652],[-62.5521,58.1293],[-62.5104,58.1758],[-62.4620,58.1819],[-62.4509,58.1677],[-62.5294,58.1032],[-62.5097,58.0748],[-62.5173,58.0585],[-62.4963,58.0599],[-62.4900,58.0932],[-62.4661,58.1077],[-62.3766,58.1129],[-62.3713,58.0962],[-62.4285,58.0864],[-62.3870,58.0721],[-62.3911,58.0519],[-62.3445,58.0714],[-62.3268,58.0646],[-62.3050,58.0311],[-62.3870,57.9976],[-62.5344,58.0056],[-62.6749,57.9356],[-62.5620,57.9697],[-62.4866,57.9765],[-62.4211,57.9635],[-62.4207,57.8706],[-62.3923,57.8837],[-62.3773,57.9497],[-62.3391,57.9839],[-62.3249,57.9457],[-62.3460,57.9151],[-62.3240,57.9090],[-62.2777,57.9567],[-62.2330,57.9393],[-62.2088,57.9082],[-62.1951,57.9430],[-62.1408,57.9782],[-62.0815,57.9469],[-62.0657,57.8989],[-62.1405,57.8331],[-62.1194,57.8189],[-62.1187,57.7974],[-62.0071,57.7813],[-61.9500,57.7091],[-61.9686,57.6885],[-61.8941,57.6718],[-61.8867,57.6376],[-61.8981,57.6216],[-62.0768,57.5822],[-62.0723,57.5520],[-62.0896,57.5407],[-62.2703,57.5383],[-62.3489,57.4577],[-62.5446,57.5110],[-62.5336,57.4960],[-62.3770,57.4285],[-62.3150,57.4285],[-62.1593,57.4690],[-62.0313,57.4564],[-61.9003,57.4154],[-61.8047,57.3670],[-61.9276,57.3670],[-61.8714,57.3428],[-61.8804,57.2776],[-61.9450,57.2571],[-62.0239,57.2571],[-62.0116,57.2429],[-61.8829,57.2100],[-61.8651,57.1706],[-61.7852,57.1962],[-61.7842,57.1547],[-61.6492,57.2331],[-61.6197,57.2299],[-61.6986,57.1715],[-61.6964,57.1579],[-61.4717,57.1560],[-61.3819,57.1210],[-61.3591,57.0895],[-61.3796,57.0551],[-61.3522,57.0237],[-61.3706,57.0024],[-61.3448,56.9896],[-61.3448,56.9555],[-61.3932,56.9896],[-61.5017,56.9789],[-61.5372,56.9629],[-61.5751,56.9145],[-61.6434,56.8835],[-61.6471,56.8257],[-61.6641,56.8089],[-61.7086,56.8135],[-61.8091,56.7885],[-61.8941,56.8053],[-61.9046,56.7937],[-61.8867,56.7500],[-61.9014,56.7238],[-61.8867,56.7023],[-61.8647,56.7412],[-61.8184,56.7569],[-61.6949,56.7296],[-61.7319,56.7038],[-61.8199,56.7089],[-61.7905,56.6812],[-61.7706,56.6878],[-61.6716,56.6554],[-61.6626,56.6282],[-61.6881,56.6203],[-61.9022,56.6431],[-61.9276,56.6538],[-61.8967,56.6685],[-61.9051,56.6784],[-61.9844,56.6644],[-62.5030,56.7848],[-62.2740,56.8278],[-62.0444,56.8257],[-62.0886,56.8412],[-62.3388,56.8463],[-62.4006,56.8320],[-62.4937,56.8546],[-62.5446,56.8394],[-62.5856,56.7978],[-62.0999,56.6508],[-61.9140,56.6265],[-62.2429,56.6203],[-62.0009,56.5876],[-61.8697,56.5930],[-61.7696,56.5645],[-61.7120,56.5753],[-61.6526,56.5316],[-61.6675,56.5032],[-61.7565,56.4858],[-62.0367,56.5080],[-62.0859,56.4832],[-61.9699,56.4872],[-61.9480,56.4656],[-62.1473,56.4552],[-62.0810,56.4295],[-61.9754,56.4218],[-61.9531,56.4422],[-61.9037,56.4142],[-61.8139,56.4033],[-61.7905,56.3937],[-61.8457,56.3870],[-61.7564,56.3391],[-61.7154,56.3454],[-61.7433,56.3323],[-61.7199,56.3241],[-61.6396,56.3255],[-61.6056,56.3068],[-61.6055,56.2839],[-61.7962,56.3131],[-61.8178,56.3044],[-61.6607,56.2709],[-61.7965,56.2568],[-61.8314,56.2709],[-61.7564,56.2839],[-61.8274,56.2973],[-61.9655,56.2865],[-62.0179,56.3089],[-62.0784,56.2982],[-62.0040,56.2572],[-62.0089,56.2404],[-61.9352,56.2173],[-61.8822,56.2343],[-61.7631,56.2293],[-61.7768,56.2088],[-61.5992,56.2236],[-61.5470,56.2003],[-61.3448,56.2224],[-61.3522,56.2057],[-61.3351,56.1780],[-61.3915,56.1694],[-61.4094,56.1323],[-61.3485,56.1474],[-61.3395,56.1382],[-61.3522,56.1194],[-61.3386,56.1110],[-61.4553,56.0580],[-61.4003,56.0504],[-61.3199,56.0672],[-61.2349,56.0437],[-61.3255,56.0375],[-61.2703,56.0244],[-61.4681,56.0297],[-61.5030,56.0101],[-61.3830,55.9965],[-61.3798,55.9792],[-61.3931,55.9766],[-61.4621,56.0027],[-61.4027,55.9599],[-61.2629,55.9693],[-61.2014,55.9481],[-61.1765,55.9760],[-61.1389,55.9721],[-61.0711,55.9282],[-61.0785,55.8928],[-61.1733,55.8986],[-61.194,55.8928],[-61.1932,55.8796],[-61.0985,55.8483],[-60.9339,55.8699],[-60.7816,55.8596],[-60.7468,55.8501],[-60.7285,55.8252],[-60.7359,55.8000],[-60.8178,55.7564],[-60.9686,55.7494],[-60.9439,55.7298],[-60.8622,55.7427],[-60.7490,55.7365],[-60.6964,55.7697],[-60.6539,55.8253],[-60.6019,55.8195],[-60.6260,55.7830],[-60.6071,55.7547],[-60.6124,55.7153],[-60.5913,55.7085],[-60.6562,55.6763],[-60.6312,55.6404],[-60.6851,55.5785],[-60.6813,55.5645],[-60.6022,55.6278],[-60.5079,55.8040],[-60.4896,55.8104],[-60.4237,55.7768],[-60.3995,55.7904],[-60.3722,55.7700],[-60.3347,55.7819],[-60.3312,55.7600],[-60.3858,55.7228],[-60.3722,55.7153],[-60.3858,55.7011],[-60.3751,55.6854],[-60.4935,55.6601],[-60.5253,55.6167],[-60.5305,55.5919],[-60.4711,55.6301],[-60.4343,55.6344],[-60.3995,55.6129],[-60.3943,55.5850],[-60.4547,55.5031],[-60.3408,55.5827],[-60.3192,55.5761],[-60.3338,55.5399],[-60.3040,55.5304],[-60.3107,55.5093],[-60.3433,55.5159],[-60.3865,55.4749],[-60.4547,55.4478],[-60.444,55.4021],[-60.4820,55.3522],[-60.4414,55.3684],[-60.4132,55.4000],[-60.4284,55.4152],[-60.4189,55.4276],[-60.3277,55.4948],[-60.3040,55.4894],[-60.3653,55.4348],[-60.3312,55.4553],[-60.3062,55.4366],[-60.2837,55.4406],[-60.2902,55.4792],[-60.2794,55.5012],[-60.2540,55.5049],[-60.2015,55.4894],[-60.2145,55.4410],[-60.1940,55.4274],[-60.2685,55.4214],[-60.3624,55.3904],[-60.4132,55.3113],[-60.3914,55.3051],[-60.4039,55.2921],[-60.4280,55.2827],[-60.4678,55.2970],[-60.5025,55.2703],[-60.5367,55.2049],[-60.6124,55.1679],[-60.4920,55.2262],[-60.4581,55.2355],[-60.4329,55.2208],[-60.3966,55.2587],[-60.3553,55.2591],[-60.4678,55.1884],[-60.5162,55.1194],[-60.6738,55.0506],[-60.6614,55.0375],[-60.6875,54.9954],[-60.5572,55.0853],[-60.4752,55.1127],[-60.4571,55.1548],[-60.3722,55.1679],[-60.2690,55.2429],[-60.2119,55.2477],[-60.1540,55.2902],[-60.1395,55.2840],[-60.1940,55.1946],[-60.1341,55.2355],[-60.0228,55.2765],[-60.0705,55.2355],[-60.0910,55.1884],[-60.1759,55.1239],[-60.1878,55.0990],[-60.2168,55.1055],[-60.2522,55.0865],[-60.2971,55.0233],[-60.0985,55.1400],[-60.0404,55.2185],[-60.0162,55.2269],[-60.0228,55.2355],[-59.9129,55.2424],[-59.9182,55.2629],[-59.8470,55.3098],[-59.7763,55.3318],[-59.7620,55.2840],[-59.7484,55.2765],[-59.7347,55.2922],[-59.7202,55.2742],[-59.7164,55.2523],[-59.7354,55.2560],[-59.7558,55.2219],[-59.7368,55.2170],[-59.7354,55.2014],[-59.8912,55.1523],[-59.9744,55.1559],[-59.9639,55.1171],[-59.9203,55.1468],[-59.8661,55.1477],[-59.8657,55.1194],[-59.7999,55.1127],[-59.7356,55.1505],[-59.6434,55.1335],[-59.5384,55.1772],[-59.5305,55.2140],[-59.4952,55.1946],[-59.4952,55.1400],[-59.4400,55.1518],[-59.4300,55.1420],[-59.5246,55.0585],[-59.5640,55.0506],[-59.6392,54.9954],[-59.6596,55.0028],[-59.7354,54.9680],[-59.7181,54.9555],[-59.7320,54.9372],[-59.8500,54.8745],[-59.8527,54.8447],[-59.8353,54.8543],[-59.8200,54.8408],[-59.8577,54.7898],[-59.9476,54.7564],[-59.9219,54.7432],[-59.7919,54.7868],[-59.8030,54.8145],[-59.7934,54.8759],[-59.6255,54.9481],[-59.4476,55.0619],[-59.4135,55.0575],[-59.4132,55.0302],[-59.2686,55.2083],[-59.2160,55.2182],[-59.2215,55.1679],[-59.1597,55.2387],[-59.1253,55.1946],[-59.1426,55.1547],[-59.2278,55.1140],[-59.2828,55.0580],[-59.3862,55.0045],[-59.3825,54.9780],[-59.3276,55.0165],[-59.2632,55.0303],[-59.2351,55.0506],[-59.2408,55.0718],[-59.2254,55.0840],[-59.1805,55.0990],[-59.1542,55.0742],[-59.1279,55.1272],[-59.0989,55.1150],[-59.1048,55.0785],[-59.0734,55.1083],[-59.0640,55.1480],[-59.0274,55.1619],[-59.0079,55.1536],[-58.9949,55.1194],[-58.9638,55.1400],[-58.9542,55.1310],[-58.9744,55.0785],[-59.0447,54.9988],[-58.9877,55.0195],[-58.9725,54.9959],[-58.8924,54.9544],[-59.0154,54.8930],[-58.9608,54.8930],[-58.9334,54.9202],[-58.9056,54.9224],[-58.8841,54.8978],[-58.9055,54.8930],[-58.9138,54.8482],[-58.8341,54.8427],[-58.7984,54.8577],[-58.7647,54.8426],[-58.7512,54.8029],[-58.7130,54.8498],[-58.6521,54.8098],[-58.5157,54.8036],[-58.5628,54.7694],[-58.5052,54.7837],[-58.4393,54.7769],[-58.4442,54.7607],[-58.4223,54.7440],[-58.3869,54.7473],[-58.3984,54.7899],[-58.3863,54.7952],[-58.2035,54.7974],[-58.1852,54.7858],[-58.1990,54.7776],[-58.1900,54.7641],[-58.1594,54.7421],[-58.0235,54.7427],[-57.9921,54.7167],[-57.9428,54.7421],[-57.8648,54.7449],[-57.7820,54.6800],[-57.7297,54.6901],[-57.7278,54.6633],[-57.6859,54.6379],[-57.4864,54.6588],[-57.4121,54.6192],[-57.4178,54.5977],[-57.3504,54.5894],[-57.3531,54.5667],[-57.4319,54.5571],[-57.3754,54.5266],[-57.4116,54.4913],[-57.6597,54.4886],[-57.7070,54.4752],[-57.4190,54.4610],[-57.4366,54.4493],[-57.4622,54.4629],[-57.5307,54.4535],[-57.5418,54.4473],[-57.5191,54.4346],[-57.5311,54.4247],[-57.6338,54.3834],[-57.7957,54.3920],[-57.8470,54.3793],[-57.8790,54.3933],[-58.1861,54.3585],[-58.1875,54.3444],[-58.2613,54.3101],[-58.0974,54.3318],[-58.1793,54.2971],[-58.2476,54.2902],[-58.2271,54.2630],[-58.2363,54.2562],[-58.4680,54.2336],[-58.7274,54.1456],[-58.8787,54.1472],[-59.3983,54.0494],[-59.5156,54.0637],[-59.5796,54.0503],[-59.5914,54.0438],[-59.5244,54.0263],[-59.5108,54.0011],[-59.3028,54.0183],[-58.9642,54.0742],[-58.7689,54.1251],[-58.6981,54.1243],[-58.5430,54.1940],[-58.4560,54.2006],[-58.3948,54.2365],[-58.3711,54.2282],[-58.6263,54.0442],[-58.7054,54.0327],[-58.8583,54.0501],[-59.0427,54.0302],[-58.9197,54.0159],[-59.0117,53.9576],[-59.2165,53.9307],[-59.4745,53.8281],[-59.6392,53.8241],[-59.8439,53.8446],[-59.8787,53.8241],[-59.8139,53.8139],[-59.8072,53.7984],[-59.9000,53.7955],[-60.0637,53.7620],[-60.1326,53.7831],[-60.0165,53.7080],[-60.0941,53.7003],[-60.1121,53.6177],[-60.0710,53.5664],[-60.1360,53.5293],[-60.1491,53.5557],[-60.3387,53.6255],[-60.3885,53.6679],[-60.5025,53.7080],[-60.8016,53.7722],[-60.8594,53.8351],[-60.8793,53.831],[-60.8614,53.7957],[-60.8830,53.7586],[-60.9343,53.7282],[-60.9202,53.7143],[-60.8352,53.7279],[-60.6367,53.7038],[-60.4411,53.6460],[-60.2757,53.5619],[-60.1815,53.5410],[-60.1016,53.5020],[-60.0497,53.4977],[-60.0370,53.4399],[-60.1326,53.4610],[-60.3452,53.3823],[-60.3653,53.3517],[-60.4058,53.3660],[-60.4098,53.3480],[-60.3817,53.3369],[-60.2047,53.3545],[-60.1812,53.3363],[-60.2760,53.2965],[-60.4206,53.2686],[-60.3021,53.2717],[-60.1699,53.3054],[-60.1289,53.2754],[-60.1032,53.2831],[-60.0910,53.3062],[-60.1531,53.3239],[-60.0290,53.3581],[-59.8992,53.4610],[-59.8749,53.4466],[-59.8840,53.4821],[-59.8731,53.4877],[-59.7838,53.4815],[-59.8607,53.4997],[-59.8912,53.5305],[-59.8794,53.5381],[-59.7547,53.5239],[-59.6072,53.5338],[-59.5110,53.5554],[-59.3678,53.6524],[-59.3299,53.6571],[-59.3170,53.6869],[-59.2693,53.6653],[-59.2183,53.6932],[-59.1768,53.6727],[-59.0768,53.6869],[-59.0669,53.7211],[-59.0222,53.7143],[-59.0079,53.7490],[-59.0501,53.7552],[-59.0488,53.7818],[-59.0706,53.7962],[-58.8802,53.8972],[-58.8406,53.9470],[-58.6579,53.9728],[-58.2891,54.0665],[-58.2203,54.0637],[-58.1280,54.0978],[-57.7957,54.0712],[-57.7955,54.0835],[-57.8514,54.1018],[-57.9510,54.1012],[-58.0378,54.1294],[-58.1506,54.1405],[-58.2258,54.1283],[-58.3065,54.0910],[-58.4155,54.1404],[-58.3910,54.1843],[-58.3560,54.2095],[-58.2523,54.2091],[-58.2285,54.2357],[-58.1988,54.2401],[-58.0974,54.2282],[-58.0115,54.2397],[-57.8616,54.2029],[-57.7678,54.2145],[-57.7820,54.2077],[-57.7702,54.1973],[-57.6033,54.1873],[-57.6170,54.1668],[-57.5488,54.1869],[-57.5288,54.1736],[-57.4661,54.2003],[-57.3905,54.1540],[-57.3985,54.1326],[-57.3569,54.1394],[-57.3653,54.1085],[-57.3426,54.0673],[-57.2620,53.9780],[-57.1580,53.9511],[-57.1446,53.9340],[-57.2169,53.9302],[-57.2212,53.8959],[-57.1446,53.8446],[-57.0757,53.8241],[-57.1378,53.8241],[-57.1079,53.8040],[-57.1552,53.7720],[-57.1241,53.7416],[-57.4571,53.6486],[-57.5176,53.6258],[-57.5493,53.5907],[-57.4462,53.6255],[-57.4537,53.5982],[-57.3770,53.6072],[-57.3177,53.5851],[-57.3438,53.5435],[-57.3061,53.5344],[-57.3091,53.4951],[-57.3774,53.4337],[-57.3330,53.4473],[-57.2811,53.4399],[-57.2919,53.4693],[-57.1353,53.5504],[-57.1468,53.5713],[-57.1657,53.5628],[-57.1303,53.5877],[-57.1331,53.6210],[-57.0745,53.6369],[-57.0606,53.6498],[-57.0689,53.6664],[-56.9834,53.7274],[-56.9460,53.7354],[-56.8858,53.7200],[-56.8150,53.7333],[-56.7952,53.7211],[-56.7452,53.7333],[-56.7542,53.7490],[-56.7154,53.7523],[-56.5960,53.7143],[-56.6313,53.7416],[-56.6102,53.7490],[-56.6176,53.7695],[-56.5948,53.7565],[-56.4798,53.7900],[-56.4365,53.7675],[-56.4240,53.7534],[-56.4395,53.7416],[-56.4116,53.7279],[-56.5440,53.7121],[-56.6061,53.6786],[-56.7269,53.6869],[-56.5973,53.6455],[-56.4311,53.6173],[-56.3486,53.6364],[-56.2601,53.6044],[-56.3501,53.5982],[-56.3303,53.5907],[-56.1583,53.5982],[-56.0362,53.5804],[-56.0,53.5608],[-56.0,53.5098],[-56.0154,53.5040],[-56.0212,53.5225],[-56.0528,53.5246],[-56.0621,53.5293],[-56.0410,53.5362],[-56.0696,53.5457],[-56.2634,53.5536],[-56.0528,53.4785],[-56.0306,53.4612],[-56.0349,53.4337],[-56.0,53.4244],[-56.0,53.3960],[-56.0410,53.3716],[-56.0,53.3713],[-56.0,53.0304],[-56.0587,53.0426],[-56.1651,53.0358],[-56.0820,53.0222],[-56.1372,52.9874],[-56.1227,52.9730],[-56.0511,53.0043],[-56.0,52.9998],[-56.0,52.7776],[-56.1624,52.8179],[-56.1368,52.7868],[-56.0377,52.7548],[-56.0274,52.7212],[-56.0,52.7168],[-56.0,52.6485],[-56.0972,52.6621],[-56.1242,52.6454],[-56.0,52.6332],[-56.0,52.6044],[-56.0484,52.5772],[-56.0,52.5718],[-56.0,52.5517],[-56.1170,52.5703],[-56.2181,52.5402],[-56.2984,52.5726],[-56.5003,52.5977],[-56.4500,52.5742],[-56.3526,52.5687],[-56.2667,52.5385],[-56.0406,52.5453],[-56.0,52.5150],[-56.0,52.3892],[-56.1987,52.4468],[-56.1168,52.3990],[-56.0,52.3794],[-56.0,51.9058],[-56.1168,51.864],[-56.2329,51.7872],[-56.3501,51.7786],[-56.3957,51.7380],[-56.4527,51.7429],[-56.4756,51.7057],[-56.5789,51.6574],[-56.6824,51.6481],[-56.7075,51.5794],[-56.7606,51.5620],[-56.7773,51.5375],[-56.8105,51.5268],[-56.8020,51.5145],[-56.8253,51.4899],[-56.8597,51.4756],[-56.8961,51.4772],[-56.9255,51.5009],[-56.9528,51.4736],[-56.9409,51.4466],[-56.9665,51.4252],[-57.1898,51.4188],[-57.2463,51.4683],[-57.2272,51.4940],[-57.2499,51.5082],[-57.4376,51.4857],[-57.4537,51.4804],[-57.4420,51.4678],[-57.4496,51.4486],[-57.4661,51.4456],[-57.4838,51.4673],[-57.6033,51.4326],[-57.5760,51.4673],[-57.6785,51.4343],[-57.6859,51.4804],[-57.7485,51.4630],[-57.7707,51.4082],[-57.7993,51.4162],[-57.7957,51.4395],[-57.9776,51.3296],[-58.0401,51.3136],[-58.2340,51.2769],[-58.2613,51.2960],[-58.2547,51.3291],[-58.2891,51.3364],[-58.2712,51.3276],[-58.2991,51.2912],[-58.2891,51.2750],[-58.4536,51.3165],[-58.5902,51.2510],[-58.6226,51.2773],[-58.6318,51.2613],[-58.6181,51.2333],[-58.6536,51.2365],[-58.6634,51.2571],[-58.6774,51.2442],[-58.6564,51.2109],[-58.5902,51.1862],[-58.6256,51.1514],[-58.6701,51.1418],[-58.7163,51.1065],[-58.7894,51.0968],[-58.8099,51.0775],[-58.8304,51.0900],[-58.8509,51.0552],[-58.8304,51.0416],[-58.8924,50.9944],[-58.9120,50.9982],[-58.8850,51.0416],[-58.8954,51.0549],[-59.0079,51.0149],[-58.9545,51.0031],[-58.9744,50.9534],[-58.9539,50.9391],[-58.9669,50.8982],[-58.9402,50.8845],[-58.9675,50.8770],[-58.9613,50.8206],[-59.0296,50.7809],[-59.0079,50.7610],[-59.0377,50.7524],[-59.0891,50.7843],[-59.0979,50.8119],[-59.0623,50.8754],[-59.0738,50.8943],[-59.0877,50.8876],[-59.1253,50.8020],[-59.2027,50.7319],[-59.2549,50.7610],[-59.2706,50.7186],[-59.3443,50.6751],[-59.4195,50.6648],[-59.4240,50.6521],[-59.4058,50.6443],[-59.4507,50.6270],[-59.4684,50.5924],[-59.4104,50.5724],[-59.4239,50.5400],[-59.5101,50.5462],[-59.5944,50.4793],[-59.7253,50.4571],[-59.7558,50.4383],[-59.8030,50.4457],[-59.8856,50.3768],[-59.8583,50.3638],[-59.8547,50.3318],[-59.8409,50.3284],[-59.8221,50.3566],[-59.8272,50.3280],[-59.9349,50.2841],[-59.9443,50.2610],[-59.9669,50.2724],[-60.0167,50.2446],[-60.0637,50.2539],[-60.1348,50.2129],[-60.1326,50.2328],[-60.1736,50.2328],[-60.1555,50.2508],[-60.1534,50.2883],[-60.1990,50.2757],[-60.2464,50.2346],[-60.2698,50.2403],[-60.2350,50.2744],[-60.2632,50.2709],[-60.2760,50.2949],[-60.2936,50.2465],[-60.3498,50.2532],[-60.3653,50.2465],[-60.3541,50.2335],[-60.3653,50.2260],[-60.4090,50.2545],[-60.4383,50.2418],[-60.4411,50.2608],[-60.5999,50.2163],[-60.6220,50.2230],[-60.6186,50.2539],[-60.6670,50.2260],[-60.7222,50.2260],[-60.7148,50.2403],[-60.7362,50.2403],[-60.7940,50.2046],[-60.8383,50.2197],[-60.8155,50.2489],[-60.7769,50.2608],[-60.8026,50.2670],[-60.9345,50.1993],[-60.9550,50.2197],[-60.9823,50.2123],[-61.0261,50.2272],[-61.0486,50.2217],[-61.0506,50.2055],[-61.0785,50.2123],[-61.1195,50.1924],[-61.1606,50.2017],[-61.1530,50.1850],[-61.2254,50.2055],[-61.3113,50.1993],[-61.7178,50.1000],[-61.7842,50.1099],[-61.5956,50.1583],[-61.5760,50.1873],[-61.7767,50.1341],[-61.8047,50.1441],[-61.7967,50.1720],[-61.8631,50.2301],[-62.2124,50.2417],[-62.3269,50.2891],[-62.3836,50.2778],[-62.3902,50.2945],[-62.4505,50.2654],[-62.4794,50.2812],[-62.7507,50.2874],[-62.7091,50.3154],[-62.7916,50.3091],[-62.8326,50.2874],[-62.9596,50.2881],[-63.0176,50.3154],[-63.0523,50.2874],[-63.1766,50.2901],[-63.1616,50.2608],[-63.2028,50.2451],[-63.3347,50.2503],[-63.4206,50.2189],[-63.4850,50.2635],[-63.6035,50.2539],[-63.6376,50.2744],[-63.6823,50.2744],[-63.7096,50.3017],[-63.8089,50.3154],[-63.9891,50.3069],[-64.0958,50.2908],[-64.1447,50.2676],[-64.3486,50.2880],[-64.4454,50.3229],[-64.6293,50.2840],[-64.8768,50.2726],[-64.9160,50.2882],[-65.1510,50.2988],[-65.1913,50.2872],[-65.2582,50.3222],[-65.7371,50.2574],[-65.8384,50.2604],[-65.9642,50.2931],[-66.0465,50.2260],[-66.0791,50.2222],[-66.0807,50.2465],[-66.1033,50.2440],[-66.0875,50.1924],[-66.2520,50.2197],[-66.3570,50.2014],[-66.4044,50.2182],[-66.4130,50.2642],[-66.4488,50.2735],[-66.5292,50.2303],[-66.5495,50.1983],[-66.5120,50.1646],[-66.4451,50.1758],[-66.4301,50.1720],[-66.4348,50.1575],[-66.4973,50.1463],[-66.6356,50.1850],[-66.6225,50.1509],[-66.6659,50.1347],[-66.7459,50.0536],[-66.9120,50.0112],[-66.9509,49.9864],[-66.9788,49.9448],[-66.9659,49.9153],[-66.9913,49.9031],[-67.0449,49.8283],[-67.0911,49.8493],[-67.1314,49.8312],[-67.1815,49.7548],[-67.1700,49.6779],[-67.2252,49.6233],[-67.2451,49.5681],[-67.2315,49.5139],[-67.2451,49.4588],[-67.3763,49.3392],[-67.7354,49.3148],[-67.8140,49.2802],[-68.0545,49.2943],[-68.0824,49.2602],[-68.1223,49.2713],[-68.1643,49.2056],[-68.2288,49.1919],[-68.3008,49.1981],[-68.2539,49.1670],[-68.1905,49.1674],[-68.1810,49.1244],[-68.3254,49.0984],[-68.3923,49.0639],[-68.4443,49.0616],[-68.3697,49.1155],[-68.3718,49.1403],[-68.4064,49.1636],[-68.4033,49.1845],[-68.4443,49.1981],[-68.4070,49.1230],[-68.6151,49.0394],[-68.6445,48.9911],[-68.6360,48.9653],[-68.6988,48.9448],[-68.6435,48.9176],[-68.7953,48.9074],[-68.8148,48.8828],[-68.9496,48.8257],[-68.9744,48.7881],[-69.0557,48.7735],[-69.1179,48.6305],[-69.1444,48.6005],[-69.2294,48.5921],[-69.2678,48.5432],[-69.2893,48.4645],[-69.4044,48.3627],[-69.4466,48.2962],[-69.5478,48.2454],[-69.5751,48.2454],[-69.6760,48.1498],[-69.8198,48.1619],[-69.8823,48.2211],[-69.9850,48.2784],[-70.1443,48.2733],[-70.2110,48.3150],[-70.3692,48.3741],[-70.4351,48.3629],[-70.6343,48.3968],[-70.6929,48.3928],[-70.7667,48.4350],[-70.8241,48.4317],[-70.9872,48.4651],[-71.0698,48.4446],[-70.9736,48.4514],[-70.7884,48.3956],[-70.8113,48.3696],[-70.8916,48.3627],[-70.8656,48.3241],[-70.7444,48.3553],[-70.4775,48.3564],[-70.3458,48.3260],[-70.3238,48.3010],[-70.2877,48.3074],[-70.1629,48.2450],[-70.0926,48.2348],[-70.0276,48.2528],[-69.9503,48.2308],[-69.9062,48.2072],[-69.8466,48.1427],[-69.7359,48.1225],[-69.7744,48.0747],[-69.7949,47.9887],[-69.8258,47.9699],[-69.8352,47.9170],[-69.8941,47.8516],[-69.9320,47.7730],[-70.0344,47.6973],[-70.1443,47.6563],[-70.1371,47.6422],[-70.1995,47.5955],[-70.2101,47.5283],[-70.2368,47.4955],[-70.4590,47.4304],[-70.4869,47.4447],[-70.5069,47.3796],[-70.7149,47.1175],[-70.7916,47.0724],[-70.9568,47.0206],[-71.1910,46.8580],[-71.2447,46.7889],[-71.3539,46.739],[-71.4632,46.7344],[-71.7202,46.6700],[-71.8805,46.6906],[-72.0137,46.6077],[-72.2279,46.5533],[-72.2580,46.4708],[-72.4622,46.4023],[-72.6025,46.3013],[-72.8444,46.2647],[-72.9944,46.2108],[-72.9859,46.1952],[-73.0220,46.1096],[-73.1585,46.0748],[-73.2623,45.9022],[-73.3558,45.8415],[-73.4202,45.7651],[-73.4954,45.7278],[-73.6773,45.7081],[-73.7554,45.6763],[-73.8627,45.5926],[-73.9095,45.5347],[-73.9792,45.4984],[-74.1048,45.4850],[-74.1474,45.4943],[-74.1990,45.5309],[-74.3069,45.5255],[-74.3794,45.5616],[-74.3297,45.5096],[-74.0377,45.4384],[-74.0161,45.4504],[-74.0019,45.3961],[-73.9615,45.3542],[-74.0134,45.3284],[-74.1533,45.3201],[-74.2113,45.2648],[-74.4730,45.1643],[-74.54,45.0842],[-74.54,45.12],[-74.56,45.12],[-74.56,45.0759],[-74.6530,45.0425],[-74.7129,44.9992],[-74.56,45.0386],[-74.56,44.9],[-80.0,44.9],[-80.0,51.2589],[-79.9233,51.2067],[-79.7445,51.1235],[-79.7059,51.0645],[-79.5691,50.9855]]]]}},{"type":"Feature","properties":{"rive":"S"},"geometry":{"type":"MultiPolygon","coordinates":[[[[-73.9686,45.2898],[-74.0810,45.2527],[-74.1465,45.2525],[-74.1662,45.2791],[-74.1284,45.3075],[-74.0435,45.3056],[-73.9206,45.3338],[-73.9686,45.2898]]],[[[-74.3995,45.1447],[-74.3294,45.1780],[-74.1994,45.2038],[-74.1456,45.2339],[-74.0043,45.2451],[-73.8892,45.3371],[-73.7759,45.3814],[-73.7346,45.4186],[-73.6873,45.4312],[-73.5691,45.4280],[-73.5572,45.4142],[-73.5189,45.4262],[-73.5025,45.4634],[-73.5220,45.5399],[-73.4606,45.6080],[-73.4488,45.7044],[-73.4128,45.7515],[-73.2593,45.8541],[-73.2172,45.8988],[-73.2073,45.9705],[-73.1561,46.0497],[-73.0405,46.0735],[-72.9326,46.1443],[-72.8760,46.1366],[-72.7310,46.1766],[-72.6694,46.2151],[-72.6706,46.2473],[-72.5562,46.3057],[-72.4959,46.3605],[-72.2743,46.4205],[-72.2415,46.4435],[-72.1899,46.5262],[-72.1024,46.5602],[-72.0073,46.5713],[-71.8670,46.6666],[-71.7141,46.6321],[-71.3024,46.7451],[-71.2050,46.7870],[-71.1579,46.8408],[-70.9736,46.8618],[-70.9196,46.8975],[-70.8569,46.8954],[-70.8153,46.9164],[-70.7743,46.9164],[-70.7271,46.9564],[-70.5349,47.0105],[-70.3881,47.1158],[-70.1948,47.3152],[-70.0760,47.3689],[-70.0503,47.4000],[-70.0310,47.4695],[-70.0003,47.4993],[-69.9007,47.5456],[-69.5618,47.8280],[-69.5480,47.8895],[-69.4454,47.9918],[-69.3239,48.0305],[-69.0544,48.2323],[-68.8445,48.3427],[-68.8247,48.3658],[-68.7260,48.3764],[-68.6385,48.4319],[-68.5233,48.4707],[-68.4632,48.5289],[-68.3535,48.5559],[-68.2056,48.6419],[-68.1327,48.6525],[-68.0602,48.6938],[-67.9620,48.7016],[-67.5467,48.8623],[-67.4251,48.8736],[-67.3618,48.9039],[-67.1175,48.9630],[-66.6220,49.1226],[-66.2193,49.2078],[-65.8828,49.2246],[-65.5657,49.2664],[-64.9634,49.2193],[-64.8226,49.1890],[-64.7134,49.1388],[-64.5525,49.0973],[-64.3504,48.9756],[-64.2987,48.9592],[-64.2211,48.8943],[-64.2064,48.8695],[-64.2167,48.8282],[-64.1553,48.7742],[-64.1688,48.7618],[-64.3033,48.8302],[-64.5593,48.8828],[-64.4774,48.8419],[-64.5389,48.8213],[-64.3972,48.8213],[-64.3740,48.7916],[-64.4290,48.7804],[-64.3279,48.7558],[-64.1750,48.6444],[-64.1621,48.6296],[-64.2576,48.6192],[-64.2821,48.5690],[-64.1888,48.5265],[-64.2205,48.4958],[-64.3055,48.4694],[-64.3260,48.4378],[-64.3123,48.4315],[-64.3290,48.4196],[-64.5451,48.3875],[-64.7232,48.3353],[-64.7040,48.3074],[-64.7793,48.2040],[-64.9088,48.1771],[-64.9603,48.1876],[-64.9498,48.1498],[-64.9878,48.1259],[-65.2855,48.0126],[-65.4322,48.0032],[-65.4774,48.0200],[-65.5034,48.0520],[-65.7838,48.1155],[-65.8904,48.1706],[-65.8957,48.2255],[-66.0670,48.1019],[-66.2868,48.1144],[-66.2997,48.1082],[-66.2650,48.1019],[-66.2900,48.0651],[-66.3761,48.1142],[-66.4732,48.1201],[-66.5153,48.1081],[-66.5427,48.0586],[-66.5850,48.0612],[-66.5999,48.0447],[-66.6321,48.0542],[-66.6988,48.0240],[-66.8478,47.9989],[-66.7315,47.9865],[-66.3858,48.0751],[-66.3552,48.0692],[-66.3619,48.0405],[-66.3451,48.0214],[-66.2619,48.0058],[-66.2383,47.9851],[-66.2159,47.9932],[-65.9708,47.9238],[-65.8178,47.9074],[-65.7412,47.8485],[-65.6896,47.7246],[-65.6288,47.6706],[-65.6691,47.6563],[-65.6357,47.6222],[-65.5910,47.6691],[-65.4774,47.6837],[-65.3636,47.7620],[-65.2093,47.8196],[-65.0257,47.8495],[-64.9777,47.8419],[-65.0733,47.7798],[-64.9061,47.8107],[-64.8000,47.8092],[-64.7897,47.7713],[-64.8604,47.7525],[-64.7859,47.7389],[-64.7784,47.7110],[-64.7639,47.7080],[-64.7586,47.7525],[-64.7357,47.7644],[-64.6686,47.7321],[-64.7576,47.6863],[-64.8126,47.6774],[-64.7996,47.6426],[-64.8140,47.6215],[-64.8921,47.5615],[-64.9088,47.5198],[-64.8740,47.5198],[-64.9293,47.4509],[-64.8678,47.4857],[-64.9088,47.3553],[-64.9088,47.4025],[-64.9603,47.3447],[-64.9596,47.2942],[-65.0429,47.2752],[-65.1225,47.2027],[-65.3675,47.0877],[-65.2447,47.0818],[-65.2030,47.0946],[-65.2064,47.0467],[-65.0323,47.0946],[-64.9845,47.0598],[-64.9085,47.0927],[-64.7996,47.0816],[-64.8255,47.0635],[-64.8064,46.9854],[-64.8526,46.9627],[-64.9058,46.8868],[-64.8815,46.8066],[-64.7921,46.7247],[-64.8394,46.7168],[-64.8542,46.6763],[-64.8326,46.6993],[-64.7512,46.6700],[-64.7491,46.6998],[-64.7136,46.6871],[-64.7173,46.5559],[-64.6902,46.5386],[-64.6777,46.5005],[-64.7110,46.4804],[-64.6546,46.4636],[-64.6133,46.4192],[-64.6276,46.3541],[-64.7040,46.3275],[-64.6572,46.3210],[-64.5749,46.3386],[-64.5585,46.3691],[-64.5234,46.3216],[-64.5635,46.2796],[-64.5593,46.2237],[-64.5140,46.2394],[-64.4054,46.2381],[-64.3806,46.2237],[-64.2532,46.2344],[-64.1850,46.2101],[-64.1512,46.1663],[-64.1109,46.1868],[-64.0826,46.1592],[-64.0379,46.1834],[-63.9732,46.1834],[-63.8130,46.1402],[-63.7711,46.1152],[-63.8604,46.0872],[-63.8946,46.0599],[-64.0637,46.0617],[-64.0932,46.0326],[-64.0418,45.9911],[-64.0077,46.0050],[-63.9048,45.9803],[-63.8702,45.9624],[-63.8666,45.9364],[-63.8248,45.9251],[-63.8058,45.8886],[-63.7158,45.8681],[-63.7574,45.8470],[-63.6902,45.8530],[-63.6686,45.8470],[-63.6697,45.8233],[-63.6522,45.8368],[-63.6590,45.8738],[-63.6287,45.8622],[-63.4919,45.8826],[-63.4391,45.8755],[-63.4085,45.8544],[-63.4831,45.8607],[-63.4285,45.8265],[-63.5042,45.8265],[-63.5228,45.8194],[-63.5159,45.8108],[-63.2298,45.8060],[-63.3016,45.7755],[-63.3807,45.7719],[-63.2947,45.7256],[-63.2571,45.7588],[-63.2571,45.7371],[-63.1888,45.7787],[-63.1822,45.7662],[-63.2025,45.7371],[-63.1172,45.7630],[-63.0654,45.7588],[-63.0840,45.7902],[-63.1206,45.8060],[-63.1006,45.8113],[-62.7774,45.7651],[-62.6749,45.7719],[-62.7569,45.7588],[-62.6334,45.7173],[-62.7705,45.6744],[-62.7916,45.6422],[-62.7487,45.6640],[-62.7364,45.6552],[-62.7497,45.6128],[-62.7066,45.6555],[-62.6568,45.6277],[-62.6470,45.6422],[-62.6723,45.6562],[-62.6647,45.6797],[-62.6129,45.6906],[-62.5263,45.6582],[-62.4757,45.6627],[-62.5091,45.6149],[-62.4704,45.6144],[-62.3616,45.6733],[-62.3833,45.6800],[-62.4416,45.6552],[-62.4161,45.6791],[-62.2703,45.7037],[-62.0600,45.8079],[-61.9888,45.8630],[-61.9114,45.8889],[-61.8973,45.8716],[-61.9214,45.8507],[-61.9199,45.8299],[-61.8878,45.7376],[-61.8941,45.7037],[-61.8762,45.6926],[-61.7078,45.6232],[-61.6421,45.6415],[-61.6260,45.6354],[-61.6480,45.6268],[-61.6197,45.6143],[-61.5580,45.6836],[-61.4925,45.6906],[-61.3999,45.6326],[-61.3386,45.5528],[-61.2372,45.5057],[-61.2485,45.4531],[-61.3528,45.4133],[-61.3880,45.4180],[-61.4826,45.3747],[-61.4615,45.3548],[-61.1368,45.3542],[-60.9986,45.3331],[-60.9711,45.3138],[-60.9686,45.2716],[-61.0369,45.2996],[-61.0164,45.2716],[-61.0240,45.2630],[-61.0629,45.2325],[-61.0785,45.2375],[-61.0711,45.2239],[-61.1197,45.2134],[-61.1530,45.2375],[-61.1195,45.2716],[-61.1647,45.2636],[-61.1797,45.2424],[-61.1747,45.2027],[-61.2120,45.2529],[-61.2630,45.2391],[-61.2785,45.2540],[-61.3505,45.2173],[-61.3646,45.1896],[-61.3386,45.1897],[-61.3891,45.1635],[-61.5678,45.1471],[-61.6105,45.1506],[-61.6396,45.1754],[-61.6472,45.1568],[-61.6871,45.1753],[-61.7023,45.1692],[-61.6396,45.1208],[-61.6744,45.1146],[-61.6396,45.0873],[-61.6949,45.0914],[-61.7043,45.1070],[-61.7564,45.1009],[-61.7564,45.0799],[-61.8252,45.0990],[-61.8116,45.0799],[-61.8593,45.0799],[-61.8389,45.0463],[-61.8804,45.0532],[-61.8968,45.0306],[-61.9351,45.0532],[-61.9413,45.0246],[-61.9757,45.0360],[-62.0040,45.0109],[-62.0102,45.0321],[-62.0506,45.0109],[-61.9760,44.9911],[-61.9888,44.9849],[-62.0313,44.9911],[-62.0733,44.9729],[-62.2337,44.9592],[-62.2703,44.9290],[-62.3391,44.9222],[-62.3409,44.9],[-62.3934,44.9102],[-62.4077,44.9],[-65.3818,44.9],[-65.2316,44.9551],[-65.1805,44.9932],[-64.8631,45.1395],[-64.7140,45.1923],[-64.5106,45.2285],[-64.4153,45.2716],[-64.3953,45.3016],[-64.4175,45.3196],[-64.4979,45.3338],[-64.4777,45.3411],[-64.3297,45.3095],[-64.3204,45.2829],[-64.3515,45.2481],[-64.3675,45.1966],[-64.3570,45.1707],[-64.3880,45.1487],[-64.3675,45.1078],[-64.3455,45.1058],[-64.3260,45.1419],[-64.3055,45.1487],[-64.2234,45.1083],[-64.1516,45.0497],[-64.1553,44.9837],[-64.1358,45.0032],[-64.1069,44.9979],[-64.1190,45.0298],[-64.1006,45.0593],[-64.1838,45.1143],[-64.1993,45.1486],[-64.1658,45.1594],[-64.1655,45.1860],[-64.1150,45.2160],[-63.9058,45.2757],[-63.8253,45.2796],[-63.8014,45.3110],[-63.7369,45.2996],[-63.7158,45.3263],[-63.5240,45.3338],[-63.4694,45.2921],[-63.4609,45.3250],[-63.4330,45.3448],[-63.3602,45.3610],[-63.5930,45.3951],[-63.8157,45.3951],[-63.8908,45.3528],[-63.9366,45.3985],[-64.0137,45.3904],[-64.1053,45.4151],[-64.2758,45.3920],[-64.3123,45.4020],[-64.3145,45.3819],[-64.3471,45.3889],[-64.3880,45.3672],[-64.4588,45.3999],[-64.5761,45.4156],[-64.6725,45.3890],[-64.7070,45.3605],[-64.6966,45.3263],[-64.7586,45.2996],[-64.7682,45.3299],[-64.8227,45.3479],[-64.8974,45.3465],[-64.9293,45.3263],[-64.9287,45.3830],[-64.9020,45.4299],[-64.7996,45.4708],[-64.8331,45.4839],[-64.6487,45.5590],[-64.6453,45.5863],[-64.4570,45.6831],[-64.4290,45.7098],[-64.4390,45.7385],[-64.3981,45.7562],[-64.3806,45.7923],[-64.3055,45.8265],[-64.2944,45.8050],[-64.3313,45.7771],[-64.3334,45.7446],[-64.2645,45.7651],[-64.3055,45.7787],[-64.2745,45.8045],[-64.2762,45.8417],[-64.3471,45.8886],[-64.3659,45.8759],[-64.3397,45.8607],[-64.4195,45.7911],[-64.4641,45.7727],[-64.4808,45.7278],[-64.5457,45.7315],[-64.5085,45.7661],[-64.4905,45.8167],[-64.5314,45.8470],[-64.5314,45.9022],[-64.5484,45.8836],[-64.5724,45.8856],[-64.6787,45.9909],[-64.6897,46.0462],[-64.7486,46.0899],[-64.7648,46.0872],[-64.6966,46.0326],[-64.7037,45.9993],[-64.6354,45.9452],[-64.5724,45.8607],[-64.5854,45.8259],[-64.6760,45.7515],[-64.6413,45.7241],[-64.6897,45.7241],[-64.7716,45.6143],[-64.8176,45.6374],[-64.9047,45.6282],[-64.9944,45.5590],[-65.3150,45.4592],[-65.5193,45.3646],[-65.5449,45.3295],[-65.6974,45.2852],[-65.7523,45.2443],[-65.7933,45.2648],[-65.9094,45.2102],[-65.9955,45.2302],[-66.0396,45.2851],[-66.1359,45.3126],[-66.0018,45.3985],[-66.0097,45.4643],[-66.0584,45.4226],[-66.0949,45.3542],[-66.1216,45.3610],[-66.1967,45.3338],[-66.1544,45.2896],[-66.0709,45.2744],[-66.0602,45.2580],[-66.1159,45.2367],[-66.2021,45.1594],[-66.2493,45.2046],[-66.3100,45.2048],[-66.3277,45.1897],[-66.2486,45.1852],[-66.2589,45.1617],[-66.3428,45.1443],[-66.3580,45.1166],[-66.4542,45.0770],[-66.4602,45.1147],[-66.4909,45.1556],[-66.6925,45.0746],[-66.7249,45.0935],[-66.7458,45.0645],[-66.7895,45.0593],[-66.7807,45.0968],[-66.8001,45.1078],[-66.8033,45.0934],[-66.8889,45.0606],[-66.9110,45.1139],[-66.8478,45.1283],[-66.9160,45.1546],[-66.9434,45.1897],[-66.9857,45.1587],[-67.0211,45.1683],[-67.0455,45.1171],[-67.0400,45.0756],[-67.0863,45.0976],[-67.1310,45.1538],[-67.1406,45.2046],[-67.1629,45.1985],[-67.1679,45.2226],[-67.1902,45.2331],[-67.1760,45.1786],[-67.2043,45.1782],[-67.2038,45.1574],[-67.1723,45.1551],[-67.1002,45.0693],[-67.1045,45.0379],[-67.0400,44.9731],[-67.0627,44.9314],[-67.0834,44.9254],[-67.1172,44.9483],[-67.1282,44.9254],[-67.1162,44.9],[-67.1964,44.9185],[-67.1990,44.9],[-74.54,44.9],[-74.54,45.0452],[-74.4368,45.0863],[-74.3995,45.1447]]]]}},{"type":"Feature","properties":{"rive":"M"},"geometry":{"type":"Polygon","coordinates":[[[-61.8221,47.4153],[-61.6715,47.5379],[-61.5925,47.5607],[-61.7086,47.4857],[-61.7650,47.4110],[-61.8215,47.4099],[-61.8627,47.3553],[-61.9313,47.3383],[-61.9655,47.2830],[-61.9409,47.2622],[-61.9202,47.2600],[-61.9072,47.2796],[-61.8834,47.2559],[-61.8250,47.2426],[-61.7842,47.2660],[-61.7930,47.2403],[-61.9382,47.2182],[-62.0105,47.2247],[-62.0170,47.2455],[-61.9590,47.3175],[-61.9485,47.3827],[-61.9255,47.4131],[-61.8392,47.4366],[-61.5621,47.6271],[-61.5059,47.6414],[-61.3821,47.6366],[-61.4484,47.6005],[-61.4694,47.5694],[-61.5338,47.5520],[-61.5515,47.5607],[-61.5023,47.5826],[-61.4689,47.6222],[-61.5545,47.6149],[-61.6907,47.5340],[-61.7435,47.4831],[-61.8593,47.4236],[-61.8221,47.4153]]]}}]}